NORAD_CAT_ID,OBJECT_NAME,OBJECT_TYPE,EPOCH,MEAN_MOTION,ECCENTRICITY,INCLINATION,RA_OF_ASC_NODE,ARG_OF_PERICENTER,MEAN_ANOMALY,BSTAR,MEAN_MOTION_DOT,MEAN_MOTION_DDOT,TLE_LINE0,TLE_LINE1,TLE_LINE2,SEMIMAJOR_AXIS,PERIOD,APOGEE,PERIGEE,DECAYED
54804.0,STARLINK-5422,PAYLOAD,2024-07-12 12:03:00,15.08842664,0.0001367,53.2161,225.4318,91.5725,268.5424,3.6173e-05,2.88e-06,0.0,0 STARLINK-5422,1 54804U 22175AY  24194.50209048  .00000288  00000-0  36173-4 0  9998,2 54804  53.2161 225.4318 0001367  91.5725 268.5424 15.08842664 86618,6917.872,95.437,540.683,538.792,0.0
54804.0,STARLINK-5422,PAYLOAD,2024-07-13 08:43:01,15.08839942,0.0001392,53.2161,221.5653,90.5336,269.5815,9.8664e-06,-1.31e-06,0.0,0 STARLINK-5422,1 54804U 22175AY  24195.36321296 -.00000131  00000-0  98664-5 0  9995,2 54804  53.2161 221.5653 0001392  90.5336 269.5815 15.08839942 88906,6917.881,95.438,540.709,538.783,0.0
54804.0,STARLINK-5422,PAYLOAD,2024-07-13 18:15:20,15.08838688,0.0001368,53.216,219.7809,89.3015,270.8134,1.8419e-05,5e-08,0.0,0 STARLINK-5422,1 54804U 22175AY  24195.76065383  .00000005  00000-0  18419-4 0  9999,2 54804  53.2160 219.7809 0001368  89.3015 270.8134 15.08838688 86802,6917.884,95.438,540.696,538.803,0.0
54804.0,STARLINK-5422,PAYLOAD,2024-07-14 08:33:48,15.08836936,0.0001421,53.2164,217.1056,90.8663,269.2492,4.2583e-05,3.9e-06,0.0,0 STARLINK-5422,1 54804U 22175AY  24196.35681612  .00000390  00000-0  42583-4 0  9990,2 54804  53.2164 217.1056 0001421  90.8663 269.2492 15.08836936 89051,6917.89,95.438,540.738,538.772,0.0
54804.0,STARLINK-5422,PAYLOAD,2024-07-14 18:06:07,15.08837708,0.0001418,53.2164,215.3214,90.1457,269.9697,3.7457e-05,3.08e-06,0.0,0 STARLINK-5422,1 54804U 22175AY  24196.75425654  .00000308  00000-0  37457-4 0  9999,2 54804  53.2164 215.3214 0001418  90.1457 269.9697 15.08837708 89116,6917.887,95.438,540.733,538.771,0.0
54804.0,STARLINK-5422,PAYLOAD,2024-07-15 02:03:03,15.08839593,0.0001392,53.2162,213.8353,93.1359,266.9793,7.3513e-05,8.82e-06,0.0,0 STARLINK-5422,1 54804U 22175AY  24197.08545484  .00000882  00000-0  73513-4 0  9990,2 54804  53.2162 213.8353 0001392  93.1359 266.9793 15.08839593 87000,6917.882,95.438,540.71,538.784,0.0
54804.0,STARLINK-5422,PAYLOAD,2024-07-15 08:24:35,15.08841125,0.0001394,53.2162,212.6459,93.2417,266.8734,8.3344e-05,1.039e-05,0.0,0 STARLINK-5422,1 54804U 22175AY  24197.35041399  .00001039  00000-0  83344-4 0  9994,2 54804  53.2162 212.6459 0001394  93.2417 266.8734 15.08841125 89204,6917.877,95.437,540.706,538.778,0.0
54804.0,STARLINK-5422,PAYLOAD,2024-07-15 17:56:54,15.08839687,0.0001379,53.2161,210.8619,92.6625,267.4525,6.7754e-05,7.91e-06,0.0,0 STARLINK-5422,1 54804U 22175AY  24197.74785577  .00000791  00000-0  67754-4 0  9991,2 54804  53.2161 210.8619 0001379  92.6625 267.4525 15.08839687 89269,6917.881,95.438,540.7,538.792,0.0
54804.0,STARLINK-5422,PAYLOAD,2024-07-16 05:04:37,15.08833097,0.0001396,53.2163,208.78,87.779,272.3362,2.2999e-05,7.8e-07,0.0,0 STARLINK-5422,1 54804U 22175AY  24198.21154216  .00000078  00000-0  22999-4 0  9994,2 54804  53.2163 208.7800 0001396  87.7790 272.3362 15.08833097 87177,6917.901,95.438,540.732,538.801,0.0
54804.0,STARLINK-5422,PAYLOAD,2024-07-16 09:50:46,15.0883612,0.0001422,53.2164,207.8881,87.4325,272.683,4.3996e-05,4.12e-06,0.0,0 STARLINK-5422,1 54804U 22175AY  24198.41026021  .00000412  00000-0  43996-4 0  9990,2 54804  53.2164 207.8881 0001422  87.4325 272.6830 15.08836120 89364,6917.892,95.438,540.741,538.774,0.0
54804.0,STARLINK-5422,PAYLOAD,2024-07-17 08:06:10,15.08840493,0.0001445,53.2164,203.7253,86.6675,273.4482,2.0605e-05,4e-07,0.0,0 STARLINK-5422,1 54804U 22175AY  24199.33761963  .00000040  00000-0  20605-4 0  9992,2 54804  53.2164 203.7253 0001445  86.6675 273.4482 15.08840493 87342,6917.879,95.438,540.744,538.744,0.0
54804.0,STARLINK-5422,PAYLOAD,2024-07-18 06:21:34,15.0883981,0.0001401,53.216,199.5613,88.4603,271.655,0.00010235,1.341e-05,0.0,0 STARLINK-5422,1 54804U 22175AY  24200.26497941  .00001341  00000-0  10235-3 0  9991,2 54804  53.2160 199.5613 0001401  88.4603 271.6550 15.08839810 89645,6917.881,95.438,540.715,538.777,0.0
54804.0,STARLINK-5422,PAYLOAD,2024-07-18 17:29:16,15.08841962,0.0001387,53.2162,197.4792,90.2522,269.8629,9.1031e-05,1.161e-05,0.0,0 STARLINK-5422,1 54804U 22175AY  24200.72865855  .00001161  00000-0  91031-4 0  9999,2 54804  53.2162 197.4792 0001387  90.2522 269.8629 15.08841962 87551,6917.874,95.437,540.699,538.78,0.0
54804.0,STARLINK-5422,PAYLOAD,2024-07-19 06:12:20,15.0884513,0.0001434,53.2166,195.0998,94.9216,265.1939,0.00010058,1.313e-05,0.0,0 STARLINK-5422,1 54804U 22175AY  24201.25857613  .00001313  00000-0  10058-3 0  9999,2 54804  53.2166 195.0998 0001434  94.9216 265.1939 15.08845130 89793,6917.865,95.437,540.722,538.738,0.0
54804.0,STARLINK-5422,PAYLOAD,2024-07-20 04:27:45,15.0883965,0.0001441,53.2164,190.9362,97.17,262.9456,2.9519e-05,1.82e-06,0.0,0 STARLINK-5422,1 54804U 22175AY  24202.18594010  .00000182  00000-0  29519-4 0  9997,2 54804  53.2164 190.9362 0001441  97.1700 262.9456 15.08839650 87776,6917.881,95.438,540.743,538.75,0.0
54804.0,STARLINK-5422,PAYLOAD,2024-07-21 05:53:55,15.08839995,0.0001395,53.2165,186.1798,94.4775,265.6376,1.989e-05,2.9e-07,0.0,0 STARLINK-5422,1 54804U 22175AY  24203.24578131  .00000029  00000-0  19890-4 0  9992,2 54804  53.2165 186.1798 0001395  94.4775 265.6376 15.08839995 87938,6917.88,95.438,540.71,538.78,0.0
54804.0,STARLINK-5422,PAYLOAD,2024-07-21 09:04:41,15.08841513,0.0001358,53.2162,185.5846,93.6844,266.4303,2.3987e-05,9.4e-07,0.0,0 STARLINK-5422,1 54804U 22175AY  24203.37826009  .00000094  00000-0  23987-4 0  9990,2 54804  53.2162 185.5846 0001358  93.6844 266.4303 15.08841513 90111,6917.876,95.437,540.68,538.801,0.0
54804.0,STARLINK-5422,PAYLOAD,2024-07-22 04:09:21,15.08814535,0.000133,53.2161,182.0156,104.4438,255.6702,-0.0001088,-2.018e-05,0.0,0 STARLINK-5422,1 54804U 22175AY  24204.17316671 -.00002018  00000-0 -10880-3 0  9995,2 54804  53.2161 182.0156 0001330 104.4438 255.6702 15.08814535 88075,6917.958,95.439,540.743,538.903,0.0
54804.0,STARLINK-5422,PAYLOAD,2024-07-22 08:55:31,15.08808107,0.0001284,53.2158,181.1251,90.691,269.4229,-0.00015235,-2.71e-05,0.0,0 STARLINK-5422,1 54804U 22175AY  24204.37189607 -.00002710  00000-0 -15235-3 0  9992,2 54804  53.2158 181.1251 0001284  90.6910 269.4229 15.08808107 88105,6917.978,95.44,540.731,538.955,0.0
54804.0,STARLINK-5422,PAYLOAD,2024-07-23 04:00:05,15.08858815,0.0001344,53.2154,177.5548,127.7763,232.3351,0.00025781,3.82e-05,0.0,0 STARLINK-5422,1 54804U 22175AY  24205.16673467  .00003820  00000-0  25781-3 0  9990,2 54804  53.2154 177.5548 0001344 127.7763 232.3351 15.08858815 88223,6917.823,95.436,540.618,538.758,0.0
54804.0,STARLINK-5422,PAYLOAD,2024-07-23 08:46:15,15.08857052,0.000109,53.2156,176.6619,84.3851,275.7265,0.00022711,3.33e-05,0.0,0 STARLINK-5422,1 54804U 22175AY  24205.36545696  .00003330  00000-0  22711-3 0  9990,2 54804  53.2156 176.6619 0001090  84.3851 275.7265 15.08857052 90419,6917.828,95.436,540.447,538.939,0.0
54804.0,STARLINK-5422,PAYLOAD,2024-07-23 21:29:20,15.08847078,0.0001237,53.2144,174.2847,87.098,273.0154,0.00028655,4.276e-05,0.0,0 STARLINK-5422,1 54804U 22175AY  24205.89538019  .00004276  00000-0  28655-3 0  9992,2 54804  53.2144 174.2847 0001237  87.0980 273.0154 15.08847078 88332,6917.859,95.437,540.579,538.868,0.0
54804.0,STARLINK-5422,PAYLOAD,2024-07-24 05:26:16,15.08839142,0.0001154,53.2157,172.7949,72.8629,287.2489,0.00049484,7.596e-05,0.0,0 STARLINK-5422,1 54804U 22175AY  24206.22657614  .00007596  00000-0  49484-3 0  9994,2 54804  53.2157 172.7949 0001154  72.8629 287.2489 15.08839142 90549,6917.883,95.438,540.546,538.95,0.0
54804.0,STARLINK-5422,PAYLOAD,2024-07-25 05:17:04,15.08847685,0.0001169,53.2165,168.3347,95.3105,264.8021,-0.00013424,-2.424e-05,0.0,0 STARLINK-5422,1 54804U 22175AY  24207.22018925 -.00002424  00000-0 -13424-3 0  9993,2 54804  53.2165 168.3347 0001169  95.3105 264.8021 15.08847685 88536,6917.857,95.437,540.531,538.913,0.0
54804.0,STARLINK-5422,PAYLOAD,2024-07-25 21:10:55,15.08842644,0.0001339,53.2162,165.3638,98.3242,261.7902,-0.00010049,-1.887e-05,0.0,0 STARLINK-5422,1 54804U 22175AY  24207.88258871 -.00001887  00000-0 -10049-3 0  9993,2 54804  53.2162 165.3638 0001339  98.3242 261.7902 15.08842644 90792,6917.872,95.437,540.664,538.811,0.0
54804.0,STARLINK-5422,PAYLOAD,2024-07-26 03:32:27,15.08855287,0.0001117,53.2162,164.1728,112.6002,247.5108,-9.4782e-05,-1.797e-05,0.0,0 STARLINK-5422,1 54804U 22175AY  24208.14753879 -.00001797  00000-0 -94782-4 0  9998,2 54804  53.2162 164.1728 0001117 112.6002 247.5108 15.08855287 88678,6917.834,95.437,540.471,538.926,0.0
54804.0,STARLINK-5422,PAYLOAD,2024-07-26 14:40:09,15.0885265,0.0001265,53.2164,162.0942,106.4667,253.6464,-6.6589e-05,-1.348e-05,0.0,0 STARLINK-5422,1 54804U 22175AY  24208.61121778 -.00001348  00000-0 -66589-4 0  9993,2 54804  53.2164 162.0942 0001265 106.4667 253.6464 15.08852650 90900,6917.842,95.437,540.582,538.832,0.0
54804.0,STARLINK-5422,PAYLOAD,2024-07-27 03:23:14,15.08842261,0.000119,53.2161,159.7153,100.8594,259.2532,0.00011803,1.591e-05,0.0,0 STARLINK-5422,1 54804U 22175AY  24209.14113926  .00001591  00000-0  11803-3 0  9994,2 54804  53.2161 159.7153 0001190 100.8594 259.2532 15.08842261 88821,6917.873,95.437,540.562,538.915,0.0
54804.0,STARLINK-5422,PAYLOAD,2024-07-28 03:14:02,15.08832246,0.0001157,53.2165,155.2547,91.6864,268.4261,-5.3404e-05,-1.137e-05,0.0,0 STARLINK-5422,1 54804U 22175AY  24210.13475513 -.00001137  00000-0 -53404-4 0  9990,2 54804  53.2165 155.2547 0001157  91.6864 268.4261 15.08832246 88972,6917.904,95.438,540.569,538.969,0.0
54804.0,STARLINK-5422,PAYLOAD,2024-07-29 03:04:49,15.08840974,0.0001075,53.2155,150.7947,85.4908,274.6207,-2.9408e-06,-3.35e-06,0.0,0 STARLINK-5422,1 54804U 22175AY  24211.12835074 -.00000335  00000-0 -29408-5 0  9999,2 54804  53.2155 150.7947 0001075  85.4908 274.6207 15.08840974 89128,6917.877,95.437,540.486,538.999,0.0
